[{"OBJECT_NAME":"YAOGAN-9 01B","OBJECT_ID":"2010-009B","EPOCH":"2026-03-09T21:36:43.133472","MEAN_MOTION":13.45689777,"ECCENTRICITY":0.05298959,"INCLINATION":63.3654,"RA_OF_ASC_NODE":254.758,"ARG_OF_PERICENTER":20.1216,"MEAN_ANOMALY":341.9863,"EPHEMERIS_TYPE":0,"CLASSIFICATION_TYPE":"U","NORAD_CAT_ID":36414,"ELEMENT_SET_NO":999,"REV_AT_EPOCH":78638,"BSTAR":7.8644801e-5,"MEAN_MOTION_DOT":1.9e-7,"MEAN_MOTION_DDOT":0},{"OBJECT_NAME":"SCOUT G-1 DEB","OBJECT_ID":"1988-074J","EPOCH":"2026-03-06T23:23:39.279552","MEAN_MOTION":13.92023696,"ECCENTRICITY":0.0055623,"INCLINATION":89.8257,"RA_OF_ASC_NODE":320.2062,"ARG_OF_PERICENTER":169.0294,"MEAN_ANOMALY":252.1171,"EPHEMERIS_TYPE":0,"CLASSIFICATION_TYPE":"U","NORAD_CAT_ID":28673,"ELEMENT_SET_NO":999,"REV_AT_EPOCH":52239,"BSTAR":0.0026909889,"MEAN_MOTION_DOT":3.49e-5,"MEAN_MOTION_DDOT":0}]
